start=new Date('2023-05-29T00:00:00.000Z').valueOf();
sats=[{"TLE_LINE2":"2 55676  69.9985 229.1557 0003111 266.4940  93.5900 15.69912588 16529","MEAN_MOTION":"15.69912588","OBJECT_ID":"2023-021BA","EPHEMERIS_TYPE":"0","ECCENTRICITY":"0.00031110","TIME_SYSTEM":"UTC","MEAN_ANOMALY":"93.5900","ELEMENT_SET_NO":"999","ARG_OF_PERICENTER":"266.4940","RA_OF_ASC_NODE":"229.1557","OBJECT_TYPE":"PAYLOAD","NORAD_CAT_ID":"55676","REF_FRAME":"TEME","SEMIMAJOR_AXIS":"6737.284","OBJECT_NAME":"STARLINK-5300","COUNTRY_CODE":"US","CENTER_NAME":"EARTH","SITE":"AFWTR","FILE":"3919546","DECAY_DATE":null,"INCLINATION":"69.9985","EPOCH":"2023-05-28T15:07:28.675200","BSTAR":"0.00001010700000","MEAN_ELEMENT_THEORY":"SGP4","REV_AT_EPOCH":"1652","GP_ID":"232709995","RCS_SIZE":"LARGE","CLASSIFICATION_TYPE":"U","PERIOD":"91.725","MEAN_MOTION_DDOT":"0.0000000000000","LAUNCH_DATE":"2023-02-17","PERIAPSIS":"357.053","APOAPSIS":"361.245","TLE_LINE1":"1 55676U 23021BA  23148.63019300  .00001002  00000-0  10107-4 0  9993","MEAN_MOTION_DOT":"0.00001002"},{"OBJECT_ID":"2023-021BB","EPHEMERIS_TYPE":"0","TLE_LINE2":"2 55677  69.9978 229.1523 0003015 269.1243  90.9607 15.69921979 16523","MEAN_MOTION":"15.69921979","ECCENTRICITY":"0.00030150","TIME_SYSTEM":"UTC","ELEMENT_SET_NO":"999","MEAN_ANOMALY":"90.9607","ARG_OF_PERICENTER":"269.1243","NORAD_CAT_ID":"55677","RA_OF_ASC_NODE":"229.1523","OBJECT_TYPE":"PAYLOAD","REF_FRAME":"TEME","CENTER_NAME":"EARTH","COUNTRY_CODE":"US","SEMIMAJOR_AXIS":"6737.257","OBJECT_NAME":"STARLINK-5324","SITE":"AFWTR","DECAY_DATE":null,"FILE":"3919546","EPOCH":"2023-05-28T15:07:18.830784","INCLINATION":"69.9978","BSTAR":"0.00002729700000","MEAN_ELEMENT_THEORY":"SGP4","REV_AT_EPOCH":"1652","GP_ID":"232710246","CLASSIFICATION_TYPE":"U","RCS_SIZE":"LARGE","MEAN_MOTION_DDOT":"0.0000000000000","PERIOD":"91.724","PERIAPSIS":"357.091","LAUNCH_DATE":"2023-02-17","APOAPSIS":"361.153","TLE_LINE1":"1 55677U 23021BB  23148.63007906  .00003070  00000-0  27297-4 0  9998","MEAN_MOTION_DOT":"0.00003070"},{"MEAN_ANOMALY":"88.1273","ELEMENT_SET_NO":"999","ARG_OF_PERICENTER":"271.9607","TLE_LINE2":"2 55678  70.0008 229.1582 0002756 271.9607  88.1273 15.69925411 16525","MEAN_MOTION":"15.69925411","OBJECT_ID":"2023-021BC","EPHEMERIS_TYPE":"0","ECCENTRICITY":"0.00027560","TIME_SYSTEM":"UTC","SITE":"AFWTR","DECAY_DATE":null,"FILE":"3919546","EPOCH":"2023-05-28T15:08:04.506144","INCLINATION":"70.0008","OBJECT_TYPE":"PAYLOAD","RA_OF_ASC_NODE":"229.1582","NORAD_CAT_ID":"55678","REF_FRAME":"TEME","SEMIMAJOR_AXIS":"6737.247","OBJECT_NAME":"STARLINK-5314","COUNTRY_CODE":"US","CENTER_NAME":"EARTH","RCS_SIZE":"LARGE","CLASSIFICATION_TYPE":"U","PERIOD":"91.724","MEAN_MOTION_DDOT":"0.0000000000000","BSTAR":"0.00002160600000","MEAN_ELEMENT_THEORY":"SGP4","GP_ID":"232710997","REV_AT_EPOCH":"1652","MEAN_MOTION_DOT":"0.00002386","PERIAPSIS":"357.256","LAUNCH_DATE":"2023-02-17","APOAPSIS":"360.969","TLE_LINE1":"1 55678U 23021BC  23148.63060771  .00002386  00000-0  21606-4 0  9995"},{"REV_AT_EPOCH":"1523","GP_ID":"232710498","MEAN_ELEMENT_THEORY":"SGP4","BSTAR":"-0.00004330600000","MEAN_MOTION_DDOT":"0.0000000000000","PERIOD":"91.641","CLASSIFICATION_TYPE":"U","RCS_SIZE":"LARGE","TLE_LINE1":"1 55695U 23026A   23148.32511998 -.00006127  00000-0 -43306-4 0  9997","APOAPSIS":"356.699","LAUNCH_DATE":"2023-02-27","PERIAPSIS":"353.379","MEAN_MOTION_DOT":"-0.00006127","TIME_SYSTEM":"UTC","ECCENTRICITY":"0.00024650","OBJECT_ID":"2023-026A","EPHEMERIS_TYPE":"0","MEAN_MOTION":"15.71350223","TLE_LINE2":"2 55695  43.0024 106.1718 0002465 247.0113 113.0495 15.71350223 15237","ARG_OF_PERICENTER":"247.0113","ELEMENT_SET_NO":"999","MEAN_ANOMALY":"113.0495","COUNTRY_CODE":"US","CENTER_NAME":"EARTH","OBJECT_NAME":"STARLINK-30050","SEMIMAJOR_AXIS":"6733.174","REF_FRAME":"TEME","NORAD_CAT_ID":"55695","RA_OF_ASC_NODE":"106.1718","OBJECT_TYPE":"PAYLOAD","INCLINATION":"43.0024","EPOCH":"2023-05-28T07:48:10.366272","FILE":"3919546","DECAY_DATE":null,"SITE":"AFETR"},{"PERIOD":"91.640","MEAN_MOTION_DDOT":"0.0000000000000","RCS_SIZE":"LARGE","CLASSIFICATION_TYPE":"U","MEAN_ELEMENT_THEORY":"SGP4","GP_ID":"232709246","REV_AT_EPOCH":"1535","BSTAR":"0.00002797100000","MEAN_MOTION_DOT":"0.00003219","APOAPSIS":"356.205","TLE_LINE1":"1 55697U 23026C   23148.89251386  .00003219  00000-0  27971-4 0  9990","PERIAPSIS":"353.783","LAUNCH_DATE":"2023-02-27","ARG_OF_PERICENTER":"262.7856","MEAN_ANOMALY":"97.2807","ELEMENT_SET_NO":"999","TIME_SYSTEM":"UTC","TLE_LINE2":"2 55697  43.0014  99.9682 0001799 262.7856  97.2807 15.71365978 15350","MEAN_MOTION":"15.71365978","EPHEMERIS_TYPE":"0","OBJECT_ID":"2023-026C","ECCENTRICITY":"0.00017990","INCLINATION":"43.0014","EPOCH":"2023-05-28T21:25:13.197504","SITE":"AFETR","DECAY_DATE":null,"FILE":"3919546","OBJECT_NAME":"STARLINK-30040","SEMIMAJOR_AXIS":"6733.129","COUNTRY_CODE":"US","CENTER_NAME":"EARTH","RA_OF_ASC_NODE":"99.9682","OBJECT_TYPE":"PAYLOAD","NORAD_CAT_ID":"55697","REF_FRAME":"TEME"},{"MEAN_ELEMENT_THEORY":"SGP4","REV_AT_EPOCH":"1517","GP_ID":"232678181","BSTAR":"0.00094271000000","MEAN_MOTION_DDOT":"0.0000000000000","PERIOD":"90.919","CLASSIFICATION_TYPE":"U","RCS_SIZE":"LARGE","APOAPSIS":"325.365","TLE_LINE1":"1 55698U 23026D   23148.91667824  .00221796  00000-0  94271-3 0  9990","LAUNCH_DATE":"2023-02-27","PERIAPSIS":"313.872","MEAN_MOTION_DOT":"0.00221796","TIME_SYSTEM":"UTC","OBJECT_ID":"2023-026D","EPHEMERIS_TYPE":"0","MEAN_MOTION":"15.83831558","TLE_LINE2":"2 55698  42.9955 100.7640 0008580 189.9669 291.3646 15.83831558 15178","ECCENTRICITY":"0.00085800","ARG_OF_PERICENTER":"189.9669","ELEMENT_SET_NO":"999","MEAN_ANOMALY":"291.3646","CENTER_NAME":"EARTH","COUNTRY_CODE":"US","SEMIMAJOR_AXIS":"6697.754","OBJECT_NAME":"STARLINK-30061","NORAD_CAT_ID":"55698","OBJECT_TYPE":"PAYLOAD","RA_OF_ASC_NODE":"100.7640","REF_FRAME":"TEME","EPOCH":"2023-05-28T22:00:00.999936","INCLINATION":"42.9955","SITE":"AFETR","FILE":"3919274","DECAY_DATE":null},{"MEAN_MOTION_DDOT":"0.0000000000000","PERIOD":"91.641","CLASSIFICATION_TYPE":"U","RCS_SIZE":"LARGE","MEAN_ELEMENT_THEORY":"SGP4","GP_ID":"232710248","REV_AT_EPOCH":"1523","BSTAR":"-0.00000888290000","MEAN_MOTION_DOT":"-0.00001616","APOAPSIS":"355.987","TLE_LINE1":"1 55699U 23026E   23148.31571678 -.00001616  00000-0 -88829-5 0  9999","PERIAPSIS":"354.095","LAUNCH_DATE":"2023-02-27","ARG_OF_PERICENTER":"265.2242","ELEMENT_SET_NO":"999","MEAN_ANOMALY":"94.8466","TIME_SYSTEM":"UTC","OBJECT_ID":"2023-026E","EPHEMERIS_TYPE":"0","MEAN_MOTION":"15.71349724","TLE_LINE2":"2 55699  43.0006 106.0876 0001405 265.2242  94.8466 15.71349724 15231","ECCENTRICITY":"0.00014050","EPOCH":"2023-05-28T07:34:37.929792","INCLINATION":"43.0006","SITE":"AFETR","FILE":"3919546","DECAY_DATE":null,"CENTER_NAME":"EARTH","COUNTRY_CODE":"US","OBJECT_NAME":"STARLINK-30055","SEMIMAJOR_AXIS":"6733.176","NORAD_CAT_ID":"55699","OBJECT_TYPE":"PAYLOAD","RA_OF_ASC_NODE":"106.0876","REF_FRAME":"TEME"},{"ARG_OF_PERICENTER":"273.1700","MEAN_ANOMALY":"86.8980","ELEMENT_SET_NO":"999","TIME_SYSTEM":"UTC","ECCENTRICITY":"0.00016370","MEAN_MOTION":"15.71358103","TLE_LINE2":"2 55700  43.0012 106.1667 0001637 273.1700  86.8980 15.71358103 15237","EPHEMERIS_TYPE":"0","OBJECT_ID":"2023-026F","INCLINATION":"43.0012","EPOCH":"2023-05-28T07:47:44.375424","DECAY_DATE":null,"FILE":"3919546","SITE":"AFETR","SEMIMAJOR_AXIS":"6733.152","OBJECT_NAME":"STARLINK-30064","COUNTRY_CODE":"US","CENTER_NAME":"EARTH","REF_FRAME":"TEME","RA_OF_ASC_NODE":"106.1667","OBJECT_TYPE":"PAYLOAD","NORAD_CAT_ID":"55700","PERIOD":"91.640","MEAN_MOTION_DDOT":"0.0000000000000","RCS_SIZE":"LARGE","CLASSIFICATION_TYPE":"U","GP_ID":"232710999","REV_AT_EPOCH":"1523","MEAN_ELEMENT_THEORY":"SGP4","BSTAR":"0.00003769100000","MEAN_MOTION_DOT":"0.00004494","TLE_LINE1":"1 55700U 23026F   23148.32481916  .00004494  00000-0  37691-4 0  9993","APOAPSIS":"356.119","LAUNCH_DATE":"2023-02-27","PERIAPSIS":"353.914"},{"OBJECT_TYPE":"PAYLOAD","RA_OF_ASC_NODE":"102.6965","NORAD_CAT_ID":"55701","REF_FRAME":"TEME","OBJECT_NAME":"STARLINK-30065","SEMIMAJOR_AXIS":"6733.081","CENTER_NAME":"EARTH","COUNTRY_CODE":"US","SITE":"AFETR","FILE":"3919546","DECAY_DATE":null,"EPOCH":"2023-05-28T21:27:58.778784","INCLINATION":"43.0023","TLE_LINE2":"2 55701  43.0023 102.6965 0001277 249.4392 110.6339 15.71382790 15328","MEAN_MOTION":"15.71382790","OBJECT_ID":"2023-026G","EPHEMERIS_TYPE":"0","ECCENTRICITY":"0.00012770","TIME_SYSTEM":"UTC","MEAN_ANOMALY":"110.6339","ELEMENT_SET_NO":"999","ARG_OF_PERICENTER":"249.4392","PERIAPSIS":"354.086","LAUNCH_DATE":"2023-02-27","APOAPSIS":"355.806","TLE_LINE1":"1 55701U 23026G   23148.89443031  .00006790  00000-0  55116-4 0  9995","MEAN_MOTION_DOT":"0.00006790","BSTAR":"0.00005511600000","MEAN_ELEMENT_THEORY":"SGP4","REV_AT_EPOCH":"1532","GP_ID":"232709747","RCS_SIZE":"LARGE","CLASSIFICATION_TYPE":"U","PERIOD":"91.639","MEAN_MOTION_DDOT":"0.0000000000000"},{"MEAN_MOTION":"15.29260135","TLE_LINE2":"2 55702  43.0038 121.8550 0001382 261.4573  98.6122 15.29260135 15089","OBJECT_ID":"2023-026H","EPHEMERIS_TYPE":"0","ECCENTRICITY":"0.00013820","TIME_SYSTEM":"UTC","MEAN_ANOMALY":"98.6122","ELEMENT_SET_NO":"999","ARG_OF_PERICENTER":"261.4573","OBJECT_TYPE":"PAYLOAD","RA_OF_ASC_NODE":"121.8550","NORAD_CAT_ID":"55702","REF_FRAME":"TEME","OBJECT_NAME":"STARLINK-30042","SEMIMAJOR_AXIS":"6856.160","COUNTRY_CODE":"US","CENTER_NAME":"EARTH","SITE":"AFETR","DECAY_DATE":null,"FILE":"3919546","INCLINATION":"43.0038","EPOCH":"2023-05-28T15:32:43.254240","BSTAR":"0.00007059500000","MEAN_ELEMENT_THEORY":"SGP4","GP_ID":"232709497","REV_AT_EPOCH":"1508","RCS_SIZE":"LARGE","CLASSIFICATION_TYPE":"U","PERIOD":"94.163","MEAN_MOTION_DDOT":"0.0000000000000","LAUNCH_DATE":"2023-02-27","PERIAPSIS":"477.077","APOAPSIS":"478.972","TLE_LINE1":"1 55702U 23026H   23148.64772285  .00001779  00000-0  70595-4 0  9995","MEAN_MOTION_DOT":"0.00001779"}];
